ONEWEB-0183             
1 48219U 21031K   25363.37290005 -.00000071  00000+0 -22658-3 0  9991
2 48219  87.8995 323.5462 0001851  87.7579 272.3763 13.14502030226015
ONEWEB-0185             
1 48220U 21031L   25363.39905267 -.00000070  00000+0 -22249-3 0  9993
2 48220  87.9009 323.5202 0001633  95.7265 264.4051 13.14504664225943
ONEWEB-0187             
1 48221U 21031M   25363.45522310 -.00000145  00000+0 -42555-3 0  9990
2 48221  87.9004 323.5479 0001535  86.2197 273.9108 13.14501393225961
ONEWEB-0192             
1 48222U 21031N   25363.34911786  .00000316  00000+0  81876-3 0  9995
2 48222  87.8994 323.5583 0001731  81.9259 278.2067 13.14501971225867
ONEWEB-0219             
1 48223U 21031P   25363.40461133  .00000062  00000+0  13143-3 0  9999
2 48223  87.9005 323.5270 0001607  88.8196 271.3117 13.14501532226070
ONEWEB-0202             
1 48224U 21031Q   25363.46169912 -.00000238  00000+0 -67704-3 0  9995
2 48224  87.8999 323.5272 0001253  61.9282 298.1974 13.14502166226060
ONEWEB-0204             
1 48225U 21031R   25363.34357465  .00000711  00000+0  18841-2 0  9996
2 48225  87.9010 323.5413 0001883  89.7278 270.4068 13.14503002225948
ONEWEB-0205             
1 48226U 21031S   25363.31897999 -.00000166  00000+0 -48274-3 0  9995
2 48226  87.9007 323.5395 0001668  89.0881 271.0440 13.14501346225959
ONEWEB-0206             
1 48227U 21031T   25363.36814662 -.00000039  00000+0 -14035-3 0  9994
2 48227  87.9019 323.5216 0001948  75.3035 284.8310 13.14503823225911
ONEWEB-0182             
1 48228U 21031U   25363.43950451  .00000108  00000+0  25747-3 0  9997
2 48228  87.8999 323.5325 0001885  88.2454 271.8892 13.14501617226132
ONEWEB-0186             
1 48229U 21031V   25363.45060233 -.00000146  00000+0 -42940-3 0  9998
2 48229  87.9015 323.5101 0001695  83.7582 276.3741 13.14501394226085
ONEWEB-0181             
1 48230U 21031W   25363.35228476  .00000242  00000+0  61858-3 0  9998
2 48230  87.9000 323.5810 0001570  79.0625 281.0682 13.14501410225924
ONEWEB-0188             
1 48231U 21031X   25363.31422015 -.00000083  00000+0 -25781-3 0  9990
2 48231  87.8996 323.5854 0001784  83.9164 276.2169 13.14502816225821
ONEWEB-0220             
1 48232U 21031Y   25363.42998543  .00000258  00000+0  66261-3 0  9997
2 48232  87.9017 323.5133 0001625  88.5586 271.5730 13.14501290226109
ONEWEB-0165             
1 48233U 21031Z   25363.45853384 -.00000116  00000+0 -34813-3 0  9997
2 48233  87.8997 323.5309 0001484  75.1200 285.0094 13.14502032226062
ONEWEB-0199             
1 48234U 21031AA  25363.36656090  .00000028  00000+0  41822-4 0  9992
2 48234  87.9012 323.5266 0001937  80.6012 279.5337 13.14501482225952
ONEWEB-0203             
1 48235U 21031AB  25363.43315986  .00000193  00000+0  48483-3 0  9999
2 48235  87.9006 323.5133 0001733  73.5535 286.5785 13.14501479225977
