[{"OBJECT_NAME":"ONEWEB-0183","OBJECT_ID":"2021-031K","EPOCH":"2025-12-29T08:56:58.564320","MEAN_MOTION":13.1450203,"ECCENTRICITY":0.0001851,"INCLINATION":87.8995,"RA_OF_ASC_NODE":323.5462,"ARG_OF_PERICENTER":87.7579,"MEAN_ANOMALY":272.3763,"EPHEMERIS_TYPE":0,"CLASSIFICATION_TYPE":"U","NORAD_CAT_ID":48219,"ELEMENT_SET_NO":999,"REV_AT_EPOCH":22601,"BSTAR":-0.00022658,"MEAN_MOTION_DOT":-7.1e-7,"MEAN_MOTION_DDOT":0},{"OBJECT_NAME":"ONEWEB-0185","OBJECT_ID":"2021-031L","EPOCH":"2025-12-29T09:34:38.150688","MEAN_MOTION":13.14504664,"ECCENTRICITY":0.0001633,"INCLINATION":87.9009,"RA_OF_ASC_NODE":323.5202,"ARG_OF_PERICENTER":95.7265,"MEAN_ANOMALY":264.4051,"EPHEMERIS_TYPE":0,"CLASSIFICATION_TYPE":"U","NORAD_CAT_ID":48220,"ELEMENT_SET_NO":999,"REV_AT_EPOCH":22594,"BSTAR":-0.00022249,"MEAN_MOTION_DOT":-7.0e-7,"MEAN_MOTION_DDOT":0},{"OBJECT_NAME":"ONEWEB-0187","OBJECT_ID":"2021-031M","EPOCH":"2025-12-29T10:55:31.275840","MEAN_MOTION":13.14501393,"ECCENTRICITY":0.0001535,"INCLINATION":87.9004,"RA_OF_ASC_NODE":323.5479,"ARG_OF_PERICENTER":86.2197,"MEAN_ANOMALY":273.9108,"EPHEMERIS_TYPE":0,"CLASSIFICATION_TYPE":"U","NORAD_CAT_ID":48221,"ELEMENT_SET_NO":999,"REV_AT_EPOCH":22596,"BSTAR":-0.00042555,"MEAN_MOTION_DOT":-1.45e-6,"MEAN_MOTION_DDOT":0},{"OBJECT_NAME":"ONEWEB-0192","OBJECT_ID":"2021-031N","EPOCH":"2025-12-29T08:22:43.783104","MEAN_MOTION":13.14501971,"ECCENTRICITY":0.0001731,"INCLINATION":87.8994,"RA_OF_ASC_NODE":323.5583,"ARG_OF_PERICENTER":81.9259,"MEAN_ANOMALY":278.2067,"EPHEMERIS_TYPE":0,"CLASSIFICATION_TYPE":"U","NORAD_CAT_ID":48222,"ELEMENT_SET_NO":999,"REV_AT_EPOCH":22586,"BSTAR":0.00081876,"MEAN_MOTION_DOT":3.16e-6,"MEAN_MOTION_DDOT":0},{"OBJECT_NAME":"ONEWEB-0219","OBJECT_ID":"2021-031P","EPOCH":"2025-12-29T09:42:38.418912","MEAN_MOTION":13.14501532,"ECCENTRICITY":0.0001607,"INCLINATION":87.9005,"RA_OF_ASC_NODE":323.527,"ARG_OF_PERICENTER":88.8196,"MEAN_ANOMALY":271.3117,"EPHEMERIS_TYPE":0,"CLASSIFICATION_TYPE":"U","NORAD_CAT_ID":48223,"ELEMENT_SET_NO":999,"REV_AT_EPOCH":22607,"BSTAR":0.00013143,"MEAN_MOTION_DOT":6.2e-7,"MEAN_MOTION_DDOT":0},{"OBJECT_NAME":"ONEWEB-0202","OBJECT_ID":"2021-031Q","EPOCH":"2025-12-29T11:04:50.803968","MEAN_MOTION":13.14502166,"ECCENTRICITY":0.0001253,"INCLINATION":87.8999,"RA_OF_ASC_NODE":323.5272,"ARG_OF_PERICENTER":61.9282,"MEAN_ANOMALY":298.1974,"EPHEMERIS_TYPE":0,"CLASSIFICATION_TYPE":"U","NORAD_CAT_ID":48224,"ELEMENT_SET_NO":999,"REV_AT_EPOCH":22606,"BSTAR":-0.00067704,"MEAN_MOTION_DOT":-2.38e-6,"MEAN_MOTION_DDOT":0},{"OBJECT_NAME":"ONEWEB-0204","OBJECT_ID":"2021-031R","EPOCH":"2025-12-29T08:14:44.849760","MEAN_MOTION":13.14503002,"ECCENTRICITY":0.0001883,"INCLINATION":87.901,"RA_OF_ASC_NODE":323.5413,"ARG_OF_PERICENTER":89.7278,"MEAN_ANOMALY":270.4068,"EPHEMERIS_TYPE":0,"CLASSIFICATION_TYPE":"U","NORAD_CAT_ID":48225,"ELEMENT_SET_NO":999,"REV_AT_EPOCH":22594,"BSTAR":0.0018841,"MEAN_MOTION_DOT":7.11e-6,"MEAN_MOTION_DDOT":0},{"OBJECT_NAME":"ONEWEB-0205","OBJECT_ID":"2021-031S","EPOCH":"2025-12-29T07:39:19.871136","MEAN_MOTION":13.14501346,"ECCENTRICITY":0.0001668,"INCLINATION":87.9007,"RA_OF_ASC_NODE":323.5395,"ARG_OF_PERICENTER":89.0881,"MEAN_ANOMALY":271.044,"EPHEMERIS_TYPE":0,"CLASSIFICATION_TYPE":"U","NORAD_CAT_ID":48226,"ELEMENT_SET_NO":999,"REV_AT_EPOCH":22595,"BSTAR":-0.00048274,"MEAN_MOTION_DOT":-1.66e-6,"MEAN_MOTION_DDOT":0},{"OBJECT_NAME":"ONEWEB-0206","OBJECT_ID":"2021-031T","EPOCH":"2025-12-29T08:50:07.867968","MEAN_MOTION":13.14503823,"ECCENTRICITY":0.0001948,"INCLINATION":87.9019,"RA_OF_ASC_NODE":323.5216,"ARG_OF_PERICENTER":75.3035,"MEAN_ANOMALY":284.831,"EPHEMERIS_TYPE":0,"CLASSIFICATION_TYPE":"U","NORAD_CAT_ID":48227,"ELEMENT_SET_NO":999,"REV_AT_EPOCH":22591,"BSTAR":-0.00014035,"MEAN_MOTION_DOT":-3.9e-7,"MEAN_MOTION_DDOT":0},{"OBJECT_NAME":"ONEWEB-0182","OBJECT_ID":"2021-031U","EPOCH":"2025-12-29T10:32:53.189664","MEAN_MOTION":13.14501617,"ECCENTRICITY":0.0001885,"INCLINATION":87.8999,"RA_OF_ASC_NODE":323.5325,"ARG_OF_PERICENTER":88.2454,"MEAN_ANOMALY":271.8892,"EPHEMERIS_TYPE":0,"CLASSIFICATION_TYPE":"U","NORAD_CAT_ID":48228,"ELEMENT_SET_NO":999,"REV_AT_EPOCH":22613,"BSTAR":0.00025747,"MEAN_MOTION_DOT":1.08e-6,"MEAN_MOTION_DDOT":0},{"OBJECT_NAME":"ONEWEB-0186","OBJECT_ID":"2021-031V","EPOCH":"2025-12-29T10:48:52.041312","MEAN_MOTION":13.14501394,"ECCENTRICITY":0.0001695,"INCLINATION":87.9015,"RA_OF_ASC_NODE":323.5101,"ARG_OF_PERICENTER":83.7582,"MEAN_ANOMALY":276.3741,"EPHEMERIS_TYPE":0,"CLASSIFICATION_TYPE":"U","NORAD_CAT_ID":48229,"ELEMENT_SET_NO":999,"REV_AT_EPOCH":22608,"BSTAR":-0.0004294,"MEAN_MOTION_DOT":-1.46e-6,"MEAN_MOTION_DDOT":0},{"OBJECT_NAME":"ONEWEB-0181","OBJECT_ID":"2021-031W","EPOCH":"2025-12-29T08:27:17.403264","MEAN_MOTION":13.1450141,"ECCENTRICITY":0.000157,"INCLINATION":87.9,"RA_OF_ASC_NODE":323.581,"ARG_OF_PERICENTER":79.0625,"MEAN_ANOMALY":281.0682,"EPHEMERIS_TYPE":0,"CLASSIFICATION_TYPE":"U","NORAD_CAT_ID":48230,"ELEMENT_SET_NO":999,"REV_AT_EPOCH":22592,"BSTAR":0.00061858,"MEAN_MOTION_DOT":2.42e-6,"MEAN_MOTION_DDOT":0},{"OBJECT_NAME":"ONEWEB-0188","OBJECT_ID":"2021-031X","EPOCH":"2025-12-29T07:32:28.620960","MEAN_MOTION":13.14502816,"ECCENTRICITY":0.0001784,"INCLINATION":87.8996,"RA_OF_ASC_NODE":323.5854,"ARG_OF_PERICENTER":83.9164,"MEAN_ANOMALY":276.2169,"EPHEMERIS_TYPE":0,"CLASSIFICATION_TYPE":"U","NORAD_CAT_ID":48231,"ELEMENT_SET_NO":999,"REV_AT_EPOCH":22582,"BSTAR":-0.00025781,"MEAN_MOTION_DOT":-8.3e-7,"MEAN_MOTION_DDOT":0},{"OBJECT_NAME":"ONEWEB-0220","OBJECT_ID":"2021-031Y","EPOCH":"2025-12-29T10:19:10.741152","MEAN_MOTION":13.1450129,"ECCENTRICITY":0.0001625,"INCLINATION":87.9017,"RA_OF_ASC_NODE":323.5133,"ARG_OF_PERICENTER":88.5586,"MEAN_ANOMALY":271.573,"EPHEMERIS_TYPE":0,"CLASSIFICATION_TYPE":"U","NORAD_CAT_ID":48232,"ELEMENT_SET_NO":999,"REV_AT_EPOCH":22610,"BSTAR":0.00066261,"MEAN_MOTION_DOT":2.58e-6,"MEAN_MOTION_DDOT":0},{"OBJECT_NAME":"ONEWEB-0165","OBJECT_ID":"2021-031Z","EPOCH":"2025-12-29T11:00:17.323776","MEAN_MOTION":13.14502032,"ECCENTRICITY":0.0001484,"INCLINATION":87.8997,"RA_OF_ASC_NODE":323.5309,"ARG_OF_PERICENTER":75.12,"MEAN_ANOMALY":285.0094,"EPHEMERIS_TYPE":0,"CLASSIFICATION_TYPE":"U","NORAD_CAT_ID":48233,"ELEMENT_SET_NO":999,"REV_AT_EPOCH":22606,"BSTAR":-0.00034813,"MEAN_MOTION_DOT":-1.16e-6,"MEAN_MOTION_DDOT":0},{"OBJECT_NAME":"ONEWEB-0199","OBJECT_ID":"2021-031AA","EPOCH":"2025-12-29T08:47:50.861760","MEAN_MOTION":13.14501482,"ECCENTRICITY":0.0001937,"INCLINATION":87.9012,"RA_OF_ASC_NODE":323.5266,"ARG_OF_PERICENTER":80.6012,"MEAN_ANOMALY":279.5337,"EPHEMERIS_TYPE":0,"CLASSIFICATION_TYPE":"U","NORAD_CAT_ID":48234,"ELEMENT_SET_NO":999,"REV_AT_EPOCH":22595,"BSTAR":4.1822e-5,"MEAN_MOTION_DOT":2.8e-7,"MEAN_MOTION_DDOT":0},{"OBJECT_NAME":"ONEWEB-0203","OBJECT_ID":"2021-031AB","EPOCH":"2025-12-29T10:23:45.011904","MEAN_MOTION":13.14501479,"ECCENTRICITY":0.0001733,"INCLINATION":87.9006,"RA_OF_ASC_NODE":323.5133,"ARG_OF_PERICENTER":73.5535,"MEAN_ANOMALY":286.5785,"EPHEMERIS_TYPE":0,"CLASSIFICATION_TYPE":"U","NORAD_CAT_ID":48235,"ELEMENT_SET_NO":999,"REV_AT_EPOCH":22597,"BSTAR":0.00048483,"MEAN_MOTION_DOT":1.93e-6,"MEAN_MOTION_DDOT":0}]
